{"fetched_at":"2026-07-15T06:36:24.158Z","source":"https://celestrak.org/NORAD/elements/gp.php?NAME=SENTINEL&FORMAT=JSON","constellation":"sentinel-6","records":[{"OBJECT_NAME":"SENTINEL-6A","OBJECT_ID":"2020-086A","EPOCH":"2026-07-14T21:07:56.584128","CLASSIFICATION_TYPE":"U","MEAN_MOTION":12.80930157,"ECCENTRICITY":0.00077886,"INCLINATION":66.0412,"RA_OF_ASC_NODE":77.5341,"ARG_OF_PERICENTER":269.7823,"MEAN_ANOMALY":90.2299,"EPHEMERIS_TYPE":0,"NORAD_CAT_ID":46984,"ELEMENT_SET_NO":999,"REV_AT_EPOCH":26387,"BSTAR":0.000083335395,"MEAN_MOTION_DOT":-4.2e-7,"MEAN_MOTION_DDOT":0},{"OBJECT_NAME":"SENTINEL-6B","OBJECT_ID":"2025-264A","EPOCH":"2026-07-14T21:08:26.647872","CLASSIFICATION_TYPE":"U","MEAN_MOTION":12.80930149,"ECCENTRICITY":0.00078459,"INCLINATION":66.0413,"RA_OF_ASC_NODE":77.6596,"ARG_OF_PERICENTER":268.6787,"MEAN_ANOMALY":91.333,"EPHEMERIS_TYPE":0,"NORAD_CAT_ID":66514,"ELEMENT_SET_NO":999,"REV_AT_EPOCH":3071,"BSTAR":0.000075316104,"MEAN_MOTION_DOT":-4.4e-7,"MEAN_MOTION_DDOT":0}]}
