SENTINEL-6A             
1 46984U 20086A   26195.88051602 -.00000042  00000+0  83335-4 0  9992
2 46984  66.0412  77.5341 0007788 269.7823  90.2299 12.80930157263879
SENTINEL-6B             
1 66514U 25264A   26195.88086398 -.00000044  00000+0  75316-4 0  9998
2 66514  66.0413  77.6596 0007845 268.6787  91.3330 12.80930149 30719
